{"type": "FeatureCollection", "features": [{"type": "Feature", "properties": {"sheet_name": "injured", "scale": 1.0, "description": "Через російський обстріл Радсаду отримала поранення жінка.", "date": "2022-03-05", "timestamp": 1646438400000.0, "accuracy": 0}, "geometry": {"type": "Point", "coordinates": [31.987784, "46.899262"]}}, {"type": "Feature", "properties": {"sheet_name": "artyllery", "scale": 1.0, "description": "Через російський обстріл Радсаду загинула жінка.", "date": "2022-03-05", "timestamp": 1646438400000.0, "accuracy": 0}, "geometry": {"type": "Point", "coordinates": [31.987683, "46.899061"]}}, {"type": "Feature", "properties": {"sheet_name": "injured", "scale": 2.0, "description": "У мікрорайоні «Балабанівка» через удар з РСЗВ по приватному будинку 12-річний хлопчик та його бабуся потрапили до реанімації.", "date": "2022-03-07", "timestamp": 1646611200000.0, "accuracy": 0}, "geometry": {"type": "Point", "coordinates": [32.037903, "46.872311"]}}, {"type": "Feature", "properties": {"sheet_name": "killed", "scale": 3.0, "description": "У мікрорайоні «Балабанівка» в приватному будинку загинула мати та донька 19 років, того ж дня уламок rockets вбив 21-річну дівчину.", "date": "2022-03-07", "timestamp": 1646611200000.0, "accuracy": 0}, "geometry": {"type": "Point", "coordinates": [32.037903, "46.872311"]}}, {"type": "Feature", "properties": {"sheet_name": "injured", "scale": 2.0, "description": "Рятувальники деблокували з-під завалів чоловіка та жінку.", "date": "2022-03-07", "timestamp": 1646611200000.0, "accuracy": 0}, "geometry": {"type": "Point", "coordinates": [32.002221, "46.836790"]}}, {"type": "Feature", "properties": {"sheet_name": "injured", "scale": 8.0, "description": "Після обстрілу Миколаєва до лікарень надійшли вісім поранених цивільних.", "date": "2022-03-11", "timestamp": 1646956800000.0, "accuracy": 1}, "geometry": {"type": "Point", "coordinates": [32.05538935, "46.9414122"]}}, {"type": "Feature", "properties": {"sheet_name": "injured", "scale": 3.0, "description": "Через обстріл житлових кварталів отримали осколкові поранення троє цивільних.", "date": "2022-03-11", "timestamp": 1646956800000.0, "accuracy": 0}, "geometry": {"type": "Point", "coordinates": [32.0157461, "46.97396026"]}}, {"type": "Feature", "properties": {"sheet_name": "killed", "scale": 1.0, "description": "Під час артобстрілу загинув сторож автостоянки.", "date": "2022-03-12", "timestamp": 1647043200000.0, "accuracy": 1}, "geometry": {"type": "Point", "coordinates": [32.08043, "46.967293"]}}, {"type": "Feature", "properties": {"sheet_name": "injured", "scale": 8.0, "description": "Через обстріл поранено 8 цивільних миколаївців.", "date": "2022-03-12", "timestamp": 1647043200000.0, "accuracy": 0}, "geometry": {"type": "Point", "coordinates": [32.041523, "46.952798"]}}, {"type": "Feature", "properties": {"sheet_name": "killed", "scale": 4.0, "description": "Унаслідок удару авіації РФ по школі в Зеленому Гаю загинуло 4 людей, ще 3 постраждали.", "date": "2022-03-13", "timestamp": 1647129600000.0, "accuracy": 1}, "geometry": {"type": "Point", "coordinates": [32.24218666, "46.93808185"]}}, {"type": "Feature", "properties": {"sheet_name": "injured", "scale": 3.0, "description": "Унаслідок удару авіації РФ по школі в Зеленому Гаю загинуло 4 людей, ще 3 постраждали.", "date": "2022-03-13", "timestamp": 1647129600000.0, "accuracy": 1}, "geometry": {"type": "Point", "coordinates": [32.24218666, "46.93808185"]}}, {"type": "Feature", "properties": {"sheet_name": "killed", "scale": 9.0, "description": "Росіяни обстріляли житлові квартали Миколаєва, під удар потрапили люди, які стояли в черзі біля супермаркету та банкомату.", "date": "2022-03-13", "timestamp": 1647129600000.0, "accuracy": 1}, "geometry": {"type": "Point", "coordinates": [31.997398, "47.013818"]}}, {"type": "Feature", "properties": {"sheet_name": "injured", "scale": 13.0, "description": "Росіяни обстріляли житлові квартали Миколаєва, під удар потрапили люди, які стояли в черзі біля супермаркету та банкомату.", "date": "2022-03-13", "timestamp": 1647129600000.0, "accuracy": 1}, "geometry": {"type": "Point", "coordinates": [31.997498, "47.013618"]}}, {"type": "Feature", "properties": {"sheet_name": "killed", "scale": 1.0, "description": "Одна людина загинула через авіаційний обстріл міста Снігурівка.", "date": "2022-03-14", "timestamp": 1647216000000.0, "accuracy": 0}, "geometry": {"type": "Point", "coordinates": [32.43789689, "47.04246442"]}}, {"type": "Feature", "properties": {"sheet_name": "injured", "scale": 6.0, "description": "Рятувальники деблокували з-під завалів шість людей у Снігурівці після авіаційного удару по будинках.", "date": "2022-03-14", "timestamp": 1647216000000.0, "accuracy": 0}, "geometry": {"type": "Point", "coordinates": [32.43789189, "47.04245442"]}}, {"type": "Feature", "properties": {"sheet_name": "killed", "scale": 2.0, "description": "Після руйнування будинку та пожежі рятувальники деблокували тіла 2 загиблих жінок.", "date": "2022-03-22", "timestamp": 1647907200000.0, "accuracy": 0}, "geometry": {"type": "Point", "coordinates": [32.06858, "46.9731"]}}, {"type": "Feature", "properties": {"sheet_name": "injured", "scale": 1.0, "description": "Одна жінка постраждала у результаті обстрілу автозаправки у Миколаєві.", "date": "2022-03-22", "timestamp": 1647907200000.0, "accuracy": 1}, "geometry": {"type": "Point", "coordinates": [32.03429725, "46.8618415"]}}, {"type": "Feature", "properties": {"sheet_name": "killed", "scale": 3.0, "description": "Троє чоловіків загинули у результаті обстрілу автозаправки у Миколаєві.", "date": "2022-03-22", "timestamp": 1647907200000.0, "accuracy": 1}, "geometry": {"type": "Point", "coordinates": [32.03429725, "46.8618415"]}}, {"type": "Feature", "properties": {"sheet_name": "killed", "scale": 3.0, "description": "Через обстріл з РСЗВ \"Смерч\" у Явкиному загинуло три людини.", "date": "2022-03-24", "timestamp": 1648080000000.0, "accuracy": 0}, "geometry": {"type": "Point", "coordinates": [32.60831, "47.27214"]}}, {"type": "Feature", "properties": {"sheet_name": "injured", "scale": 13.0, "description": "Росіяни обстріляли з РСЗВ \"Смерч\" Явкине, через що 13 цивільних отримали поранення.", "date": "2022-03-24", "timestamp": 1648080000000.0, "accuracy": 0}, "geometry": {"type": "Point", "coordinates": [32.60731, "47.27414"]}}, {"type": "Feature", "properties": {"sheet_name": "killed", "scale": 40.0, "description": "Ракетний удар по Миколаївській обласній державній адміністрації вбив близько 40 людей: серед них кілька військових, які несли чергування, та цивільні працівники ОДА.", "date": "2022-03-29", "timestamp": 1648512000000.0, "accuracy": 1}, "geometry": {"type": "Point", "coordinates": [31.99725576, "46.97443944"]}}, {"type": "Feature", "properties": {"sheet_name": "injured", "scale": 11.0, "description": "Внаслідок удару по Миколаєву 11 цивільних ушпиталили з пораненнями, зокрема 15-річного підлітка з травмами середнього ступеня тяжкості.", "date": "2022-04-03", "timestamp": 1648944000000.0, "accuracy": 0}, "geometry": {"type": "Point", "coordinates": [32.01306517, "46.95973363"]}}, {"type": "Feature", "properties": {"sheet_name": "killed", "scale": 1.0, "description": "Внаслідок удару по Миколаєву в Корабельному районі у будинку загинула одна людина.", "date": "2022-04-03", "timestamp": 1648944000000.0, "accuracy": 0}, "geometry": {"type": "Point", "coordinates": [32.010086, "46.842674"]}}, {"type": "Feature", "properties": {"sheet_name": "killed", "scale": 1.0, "description": "В Заводському районі внаслідок обстрілу сталось руйнування одноповерхового житлового будинку. Рятувальники деблокували тіло загиблого літнього чоловіка.", "date": "2022-04-03", "timestamp": 1648944000000.0, "accuracy": 0}, "geometry": {"type": "Point", "coordinates": [31.99182, "46.96136"]}}, {"type": "Feature", "properties": {"sheet_name": "killed", "scale": 7.0, "description": "Внаслідок обстрілів загинули 7 жителів Очакова.", "date": "2022-04-03", "timestamp": 1648944000000.0, "accuracy": 0}, "geometry": {"type": "Point", "coordinates": [31.5386, "46.61150"]}}, {"type": "Feature", "properties": {"sheet_name": "injured", "scale": 20.0, "description": "Внаслідок обстрілів 20 жителів Очакова отримали поранення. ", "date": "2022-04-03", "timestamp": 1648944000000.0, "accuracy": 0}, "geometry": {"type": "Point", "coordinates": [31.5687, "46.61351"]}}, {"type": "Feature", "properties": {"sheet_name": "injured", "scale": 61.0, "description": "Внаслідок обстрілу Миколаєва касетними боєприпасами 41 особа - поранена, серед них є четверо дітей.", "date": "2022-04-04", "timestamp": 1649030400000.0, "accuracy": 1}, "geometry": {"type": "Point", "coordinates": [32.05547, "46.943025"]}}, {"type": "Feature", "properties": {"sheet_name": "killed", "scale": 12.0, "description": "Внаслідок обстрілу Миколаєва касетними боєприпасами загинули 12 осіб, які стояли на зупинці громадського транспорту та сиділи в маршрутці.", "date": "2022-04-04", "timestamp": 1649030400000.0, "accuracy": 1}, "geometry": {"type": "Point", "coordinates": [32.05347, "46.945025"]}}, {"type": "Feature", "properties": {"sheet_name": "injured", "scale": 3.0, "description": "Через удар по терміналу \"Нової пошти\" у Миколаєві отримали поранення троє людей.", "date": "2022-04-15", "timestamp": 1649980800000.0, "accuracy": 0}, "geometry": {"type": "Point", "coordinates": [31.999892, "47.017763"]}}, {"type": "Feature", "properties": {"sheet_name": "injured", "scale": 2.0, "description": "Поранено двох людей через обстріл у Миколаєві.", "date": "2022-04-20", "timestamp": 1650412800000.0, "accuracy": 0}, "geometry": {"type": "Point", "coordinates": [31.98859, "46.96658"]}}, {"type": "Feature", "properties": {"sheet_name": "killed", "scale": 1.0, "description": "У Миколаєві через ворожу атаку загинув один цивільний.", "date": "2022-04-20", "timestamp": 1650412800000.0, "accuracy": 0}, "geometry": {"type": "Point", "coordinates": [31.9876, "46.96759"]}}, {"type": "Feature", "properties": {"sheet_name": "killed", "scale": 1.0, "description": "Внаслідок нічних обстрілів в Миколаєві загинула одна людина, двоє поранених.", "date": "2022-04-21", "timestamp": 1650499200000.0, "accuracy": 0}, "geometry": {"type": "Point", "coordinates": [31.98501, "46.96732"]}}, {"type": "Feature", "properties": {"sheet_name": "injured", "scale": 2.0, "description": "Внаслідок нічних обстрілів в Миколаєві загинула одна людина, двоє поранених.", "date": "2022-04-21", "timestamp": 1650499200000.0, "accuracy": 0}, "geometry": {"type": "Point", "coordinates": [31.98602, "46.96433"]}}, {"type": "Feature", "properties": {"sheet_name": "killed", "scale": 1.0, "description": "У Миколаєві внаслідок осколкового поранення загинув чоловік у власному будинку.", "date": "2022-04-26", "timestamp": 1650931200000.0, "accuracy": 0}, "geometry": {"type": "Point", "coordinates": [32.03081, "46.87278"]}}, {"type": "Feature", "properties": {"sheet_name": "injured", "scale": 1.0, "description": "У Миколаєві чоловік отримав проникаюче поранення грудної клітини, коли під час обстрілу виглядав у вікно.", "date": "2022-04-26", "timestamp": 1650931200000.0, "accuracy": 0}, "geometry": {"type": "Point", "coordinates": [32.00987, "46.8562"]}}, {"type": "Feature", "properties": {"sheet_name": "killed", "scale": 2.0, "description": "Через ракетний удар по Миколаєву загинули дві людини.", "date": "2022-05-08", "timestamp": 1651968000000.0, "accuracy": 0}, "geometry": {"type": "Point", "coordinates": [32.05432, "46.94473"]}}, {"type": "Feature", "properties": {"sheet_name": "injured", "scale": 1.0, "description": "В Березнегуватській громаді через обстріли поранена одна жінка.", "date": "2022-05-12", "timestamp": 1652313600000.0, "accuracy": 0}, "geometry": {"type": "Point", "coordinates": [32.882581, "47.2825689"]}}, {"type": "Feature", "properties": {"sheet_name": "injured", "scale": 1.0, "description": "У Березнегуватській громаді 1 поранений через обстріл з РСЗВ.", "date": "2022-05-15", "timestamp": 1652572800000.0, "accuracy": 0}, "geometry": {"type": "Point", "coordinates": [32.86956592, "47.35263762"]}}, {"type": "Feature", "properties": {"sheet_name": "killed", "scale": 2.0, "description": "У Березнегуватській громаді 2 загиблих через обстріл з РСЗВ.", "date": "2022-05-15", "timestamp": 1652572800000.0, "accuracy": 0}, "geometry": {"type": "Point", "coordinates": [32.86954592, "47.35264762"]}}, {"type": "Feature", "properties": {"sheet_name": "killed", "scale": 1.0, "description": "Внаслідок обстрілів смт Первомайське є загибла людина.", "date": "2022-05-18", "timestamp": 1652832000000.0, "accuracy": 0}, "geometry": {"type": "Point", "coordinates": [32.439488, "47.04433472"]}}, {"type": "Feature", "properties": {"sheet_name": "injured", "scale": 1.0, "description": "На околицях селища Березнегуватого під обстріл потрапили дві жінки, які пасли корів, одна загинула на місці, інша – госпіталізована до лікарні.", "date": "2022-05-25", "timestamp": 1653436800000.0, "accuracy": 0}, "geometry": {"type": "Point", "coordinates": [32.85054713, "47.30883505"]}}, {"type": "Feature", "properties": {"sheet_name": "killed", "scale": 1.0, "description": "Під час обстрілів у Березнегуватській громаді один цивільний загинув та один поранений.", "date": "2022-05-25", "timestamp": 1653436800000.0, "accuracy": 0}, "geometry": {"type": "Point", "coordinates": [32.85053713, "47.30881505"]}}, {"type": "Feature", "properties": {"sheet_name": "injured", "scale": 6.0, "description": "Росіяни обстріляли житлові квартали Миколаєва, відомо щонайменше про шістьох поранених цивільних.", "date": "2022-05-28", "timestamp": 1653696000000.0, "accuracy": 0}, "geometry": {"type": "Point", "coordinates": [32.018162, "46.859532"]}}, {"type": "Feature", "properties": {"sheet_name": "killed", "scale": 1.0, "description": "Росіяни обстріляли житлові квартали Миколаєва, одна людина загинула.", "date": "2022-05-28", "timestamp": 1653696000000.0, "accuracy": 0}, "geometry": {"type": "Point", "coordinates": [32.018764, "46.856534"]}}, {"type": "Feature", "properties": {"sheet_name": "injured", "scale": 2.0, "description": "Через удар по центру Нового Бугу поранені двоє цивільних.", "date": "2022-05-29", "timestamp": 1653782400000.0, "accuracy": 0}, "geometry": {"type": "Point", "coordinates": [32.50839228, "47.69199925"]}}, {"type": "Feature", "properties": {"sheet_name": "injured", "scale": 2.0, "description": "Внаслідок обстрілів в с. Луч є постраждалі цивільні.", "date": "2022-05-30", "timestamp": 1653868800000.0, "accuracy": 0}, "geometry": {"type": "Point", "coordinates": [32.21775896, "46.82656626"]}}, {"type": "Feature", "properties": {"sheet_name": "killed", "scale": 1.0, "description": "Через обстріли у Березнегуватській громаді одна людина загинула.", "date": "2022-06-01", "timestamp": 1654041600000.0, "accuracy": 0}, "geometry": {"type": "Point", "coordinates": [32.85104494, "47.30682106"]}}, {"type": "Feature", "properties": {"sheet_name": "injured", "scale": 1.0, "description": "Через авіаудар в Очакові отримала поранення одна людина.", "date": "2022-06-01", "timestamp": 1654041600000.0, "accuracy": 0}, "geometry": {"type": "Point", "coordinates": [31.54179774, "46.61432711"]}}, {"type": "Feature", "properties": {"sheet_name": "killed", "scale": 3.0, "description": "Росіяни обстріляли Корабельний район Миколаєва, внаслідок чого загинуло три людини.", "date": "2022-06-04", "timestamp": 1654300800000.0, "accuracy": 0}, "geometry": {"type": "Point", "coordinates": [32.02725298, "46.8687121"]}}, {"type": "Feature", "properties": {"sheet_name": "injured", "scale": 4.0, "description": "Росіяни обстріляли Корабельний район Миколаєва, внаслідок чого поранені 4 людини.", "date": "2022-06-04", "timestamp": 1654300800000.0, "accuracy": 0}, "geometry": {"type": "Point", "coordinates": [32.02925298, "46.8667121"]}}, {"type": "Feature", "properties": {"sheet_name": "injured", "scale": 2.0, "description": "Росіяни зруйнували електричну опору у Миколаєві, поранено двох людей.", "date": "2022-06-06", "timestamp": 1654473600000.0, "accuracy": 0}, "geometry": {"type": "Point", "coordinates": [32.069219, "46.959526"]}}, {"type": "Feature", "properties": {"sheet_name": "killed", "scale": 1.0, "description": "Під час ранкових обстрілів Миколаєва загинула одна людина.", "date": "2022-06-06", "timestamp": 1654473600000.0, "accuracy": 0}, "geometry": {"type": "Point", "coordinates": [32.04300972, "46.95594876"]}}, {"type": "Feature", "properties": {"sheet_name": "injured", "scale": 1.0, "description": "Через авіаудар під завалами будинку у Баштанці опинився чоловік, його вдалося деблокувати.", "date": "2022-06-07", "timestamp": 1654560000000.0, "accuracy": 0}, "geometry": {"type": "Point", "coordinates": [32.43220352, "47.40657143"]}}, {"type": "Feature", "properties": {"sheet_name": "injured", "scale": 1.0, "description": "Під час масштабного удару по соціальних об’єктах Баштанки дві людини загинуло, одна отримала поранення.", "date": "2022-06-07", "timestamp": 1654560000000.0, "accuracy": 1}, "geometry": {"type": "Point", "coordinates": [32.432048, "47.406948"]}}, {"type": "Feature", "properties": {"sheet_name": "killed", "scale": 2.0, "description": "У с. Засілля Первомайської громади загинули дві людини", "date": "2022-06-07", "timestamp": 1654560000000.0, "accuracy": 1}, "geometry": {"type": "Point", "coordinates": [32.42764938, "47.02356683"]}}, {"type": "Feature", "properties": {"sheet_name": "injured", "scale": 1.0, "description": "Через обстріл житлового кварталу Миколаєва поранений один цивільний.", "date": "2022-06-15", "timestamp": 1655251200000.0, "accuracy": 0}, "geometry": {"type": "Point", "coordinates": [32.08288273, "46.96605052"]}}, {"type": "Feature", "properties": {"sheet_name": "injured", "scale": 2.0, "description": "Росіяни обстріляли село Парутине, двоє людей отримали поранення.", "date": "2022-06-16", "timestamp": 1655337600000.0, "accuracy": 0}, "geometry": {"type": "Point", "coordinates": [31.90310046, "46.70377467"]}}, {"type": "Feature", "properties": {"sheet_name": "killed", "scale": 2.0, "description": "Через ракетний удар по Миколаєву дві людини загинули, ще 20 поранені.", "date": "2022-06-17", "timestamp": 1655424000000.0, "accuracy": 1}, "geometry": {"type": "Point", "coordinates": [31.951536, "46.960729"]}}, {"type": "Feature", "properties": {"sheet_name": "injured", "scale": 20.0, "description": "Через ракетний удар по Миколаєву дві людини загинули, ще 20 поранені.", "date": "2022-06-17", "timestamp": 1655424000000.0, "accuracy": 1}, "geometry": {"type": "Point", "coordinates": [31.952537, "46.961730"]}}, {"type": "Feature", "properties": {"sheet_name": "injured", "scale": 1.0, "description": "Під час обстрілу селища Засілля Первомайської громади важке поранення отримала одна людина.", "date": "2022-06-18", "timestamp": 1655510400000.0, "accuracy": 0}, "geometry": {"type": "Point", "coordinates": [32.43015995, "47.02356708"]}}, {"type": "Feature", "properties": {"sheet_name": "injured", "scale": 2.0, "description": "Ворожих обстрілів зазнала Інгульська громада, двоє людей було поранено.", "date": "2022-06-21", "timestamp": 1655769600000.0, "accuracy": 0}, "geometry": {"type": "Point", "coordinates": [32.21413293, "47.19398303"]}}, {"type": "Feature", "properties": {"sheet_name": "killed", "scale": 1.0, "description": "У Миколаєві внаслідок російських обстрілів загинула одна людина, ще троє отримали поранення.", "date": "2022-06-21", "timestamp": 1655769600000.0, "accuracy": 0}, "geometry": {"type": "Point", "coordinates": [32.04575695, "46.91844188"]}}, {"type": "Feature", "properties": {"sheet_name": "injured", "scale": 3.0, "description": "У Миколаєві внаслідок російських обстрілів загинула одна людина, ще троє отримали поранення.", "date": "2022-06-21", "timestamp": 1655769600000.0, "accuracy": 0}, "geometry": {"type": "Point", "coordinates": [32.04575695, "46.91944188"]}}, {"type": "Feature", "properties": {"sheet_name": "injured", "scale": 6.0, "description": "Внаслідок ракетного обстрілу отримали поранення жителі Очакова.", "date": "2022-06-21", "timestamp": 1655769600000.0, "accuracy": 0}, "geometry": {"type": "Point", "coordinates": [31.56245, "46.62622"]}}, {"type": "Feature", "properties": {"sheet_name": "killed", "scale": 1.0, "description": "Внаслідок ракетного обстрілу Очакова загинув один цивільний.", "date": "2022-06-21", "timestamp": 1655769600000.0, "accuracy": 0}, "geometry": {"type": "Point", "coordinates": [31.5604, "46.62566"]}}, {"type": "Feature", "properties": {"sheet_name": "injured", "scale": 1.0, "description": "Через прильоти в с. Костянтинівка одна людина поранена.", "date": "2022-06-25", "timestamp": 1656115200000.0, "accuracy": 0}, "geometry": {"type": "Point", "coordinates": [31.90857147, "47.1051473"]}}, {"type": "Feature", "properties": {"sheet_name": "killed", "scale": 3.0, "description": "Через удар по Очакову загинули троє людей, з них одна дитина.", "date": "2022-06-28", "timestamp": 1656374400000.0, "accuracy": 0}, "geometry": {"type": "Point", "coordinates": [31.547631, "46.609212"]}}, {"type": "Feature", "properties": {"sheet_name": "injured", "scale": 6.0, "description": "Через удар по Очакову поранені 6 цивільних, серед них є діти.", "date": "2022-06-28", "timestamp": 1656374400000.0, "accuracy": 0}, "geometry": {"type": "Point", "coordinates": [31.549632, "46.608213"]}}, {"type": "Feature", "properties": {"sheet_name": "killed", "scale": 4.0, "description": "Росіяни влучили ракетою в багатоповерхівку, четверо загиблих і пятеро поранених.", "date": "2022-06-29", "timestamp": 1656460800000.0, "accuracy": 0}, "geometry": {"type": "Point", "coordinates": [31.95388405108565, "46.96272445648532"]}}, {"type": "Feature", "properties": {"sheet_name": "injured", "scale": 5.0, "description": "Росіяни влучили ракетою в багатоповерхівку, четверо загиблих і пятеро поранених.", "date": "2022-06-29", "timestamp": 1656460800000.0, "accuracy": 0}, "geometry": {"type": "Point", "coordinates": [31.95288405108566, "46.96252445648533"]}}, {"type": "Feature", "properties": {"sheet_name": "killed", "scale": 1.0, "description": "В с. Білозірка пошкоджено будинок, загинула одна людина.", "date": "2022-7-1", "timestamp": 1656633600000.0, "accuracy": 0}, "geometry": {"type": "Point", "coordinates": [32.448873, "47.090263"]}}, {"type": "Feature", "properties": {"sheet_name": "killed", "scale": 1.0, "description": "В селищі Луч внаслідок ворожих обстрілів загинула одна людина.", "date": "2022-7-2", "timestamp": 1656720000000.0, "accuracy": 0}, "geometry": {"type": "Point", "coordinates": [32.220720103828675, "46.82753523717069"]}}, {"type": "Feature", "properties": {"sheet_name": "killed", "scale": 1.0, "description": "Внаслідок обстрілів с. Засілля загинула одна людина.", "date": "2022-7-5", "timestamp": 1656979200000.0, "accuracy": 0}, "geometry": {"type": "Point", "coordinates": [32.43155466821183, "47.020963043506086"]}}, {"type": "Feature", "properties": {"sheet_name": "killed", "scale": 1.0, "description": "Під час обстрілів с. Нечаяне загинула одна людина.", "date": "2022-7-6", "timestamp": 1657065600000.0, "accuracy": 0}, "geometry": {"type": "Point", "coordinates": [31.55071958787293, "46.934898731676185"]}}, {"type": "Feature", "properties": {"sheet_name": "killed", "scale": 2.0, "description": "Внаслідок обстрілів с. Українка Галицинівської громади загинуло дві людини.", "date": "2022-7-7", "timestamp": 1657152000000.0, "accuracy": 0}, "geometry": {"type": "Point", "coordinates": [32.13809556620007, "46.82814648309103"]}}, {"type": "Feature", "properties": {"sheet_name": "injured", "scale": 3.0, "description": "Через влучання по домогосподарствах у Широківській громаді поранено троє людей.", "date": "2022-7-9", "timestamp": 1657324800000.0, "accuracy": 0}, "geometry": {"type": "Point", "coordinates": [32.66527353750498, "47.06513711242668"]}}, {"type": "Feature", "properties": {"sheet_name": "injured", "scale": 1.0, "description": "У Миколаєві внаслідок ракетного обстрілу є один поранений.", "date": "2022-7-11", "timestamp": 1657497600000.0, "accuracy": 0}, "geometry": {"type": "Point", "coordinates": [32.02033554963264, "46.84416582685073"]}}, {"type": "Feature", "properties": {"sheet_name": "killed", "scale": 1.0, "description": "Через ракетний удар по Баштанці загинула жінка.", "date": "2022-7-12", "timestamp": 1657584000000.0, "accuracy": 1}, "geometry": {"type": "Point", "coordinates": [32.44362837, "47.40075653"]}}, {"type": "Feature", "properties": {"sheet_name": "injured", "scale": 4.0, "description": "У Миколаєві через масований ракетний обстріл поранено 4 людей.", "date": "2022-7-12", "timestamp": 1657584000000.0, "accuracy": 1}, "geometry": {"type": "Point", "coordinates": [31.96542348, "46.97589386"]}}, {"type": "Feature", "properties": {"sheet_name": "killed", "scale": 4.0, "description": "Через обстріли с. Новоселівка загинуло 4 людини.", "date": "2022-7-13", "timestamp": 1657670400000.0, "accuracy": 0}, "geometry": {"type": "Point", "coordinates": [32.40031029175647, "46.999264982490814"]}}, {"type": "Feature", "properties": {"sheet_name": "injured", "scale": 2.0, "description": "Через обстріли с. Новоселівка поранено 2 людини.", "date": "2022-7-13", "timestamp": 1657670400000.0, "accuracy": 0}, "geometry": {"type": "Point", "coordinates": [32.3926284451806, "46.99803568729845"]}}, {"type": "Feature", "properties": {"sheet_name": "killed", "scale": 1.0, "description": "Через нічний обстріл Баштанки загинула одна людина.", "date": "2022-7-14", "timestamp": 1657756800000.0, "accuracy": 0}, "geometry": {"type": "Point", "coordinates": [32.448061213476166, "47.41255233412174"]}}, {"type": "Feature", "properties": {"sheet_name": "injured", "scale": 1.0, "description": "По Миколаєву випущено 9 ракет типу С-300, поранена одна людина.", "date": "2022-7-14", "timestamp": 1657756800000.0, "accuracy": 1}, "geometry": {"type": "Point", "coordinates": [32.00109888797869, "46.996211079784786"]}}, {"type": "Feature", "properties": {"sheet_name": "injured", "scale": 2.0, "description": "Через обстріли у Широківській громаді отримали поранення 2 людини.", "date": "2022-7-15", "timestamp": 1657843200000.0, "accuracy": 0}, "geometry": {"type": "Point", "coordinates": [32.621648, "47.123866"]}}, {"type": "Feature", "properties": {"sheet_name": "killed", "scale": 1.0, "description": "Через обстріли у Широківській громаді загинула жінка.", "date": "2022-7-16", "timestamp": 1657929600000.0, "accuracy": 0}, "geometry": {"type": "Point", "coordinates": [32.621648, "47.123866"]}}, {"type": "Feature", "properties": {"sheet_name": "killed", "scale": 3.0, "description": "У с. Шевченкове внаслідок обстрілів загинули три людини.", "date": "2022-7-16", "timestamp": 1657929600000.0, "accuracy": 0}, "geometry": {"type": "Point", "coordinates": [32.194087891370806, "46.866723368576146"]}}, {"type": "Feature", "properties": {"sheet_name": "injured", "scale": 3.0, "description": "У с. Шевченкове внаслідок обстрілів поранені три людини.", "date": "2022-7-16", "timestamp": 1657929600000.0, "accuracy": 0}, "geometry": {"type": "Point", "coordinates": [32.181411645502656, "46.868055688481846"]}}, {"type": "Feature", "properties": {"sheet_name": "injured", "scale": 2.0, "description": "Окупанти обстріляли касетними снарядами Корабельний район Миколаєва - поранень зазнали двоє цивільних.", "date": "2022-7-18", "timestamp": 1658102400000.0, "accuracy": 0}, "geometry": {"type": "Point", "coordinates": [32.03006015433106, "46.87649230987859"]}}, {"type": "Feature", "properties": {"sheet_name": "injured", "scale": 2.0, "description": "В смт Березнегувате після ракетного обстрілу з-під завалів врятовано дві людини.", "date": "2022-7-20", "timestamp": 1658275200000.0, "accuracy": 0}, "geometry": {"type": "Point", "coordinates": [32.846669, "47.307953"]}}, {"type": "Feature", "properties": {"sheet_name": "killed", "scale": 1.0, "description": "В с. Широке внаслідок влучання боєприпасу в житловий будинок є один загиблий.", "date": "2022-7-21", "timestamp": 1658361600000.0, "accuracy": 0}, "geometry": {"type": "Point", "coordinates": [32.67821091425372, "47.10059557691848"]}}, {"type": "Feature", "properties": {"sheet_name": "injured", "scale": 1.0, "description": "Окупанти випустили по Миколаєву сім ракет С-300, одна людина постраждала. ", "date": "2022-7-21", "timestamp": 1658361600000.0, "accuracy": 0}, "geometry": {"type": "Point", "coordinates": [32.00441392872386, "46.96837354914665"]}}, {"type": "Feature", "properties": {"sheet_name": "killed", "scale": 2.0, "description": "Через удари по с. Шевченкове загинуло дві людини.", "date": "2022-7-23", "timestamp": 1658534400000.0, "accuracy": 0}, "geometry": {"type": "Point", "coordinates": [32.20434980634791, "46.86699861155283"]}}, {"type": "Feature", "properties": {"sheet_name": "injured", "scale": 5.0, "description": "По Миколаєву було випущено чотири крилатих ракети типу «Калібр». Відомо про п‘ятьох поранених, серед них підліток. ", "date": "2022-7-23", "timestamp": 1658534400000.0, "accuracy": 0}, "geometry": {"type": "Point", "coordinates": [32.01969895454785, "46.87739615936786"]}}, {"type": "Feature", "properties": {"sheet_name": "injured", "scale": 1.0, "description": "Через обстріл с. Мішково-Погорілове зазнала поранень 7-річна дитина.", "date": "2022-7-25", "timestamp": 1658707200000.0, "accuracy": 0}, "geometry": {"type": "Point", "coordinates": [32.10725471284511, "46.99390631762535"]}}, {"type": "Feature", "properties": {"sheet_name": "injured", "scale": 3.0, "description": "У Миколаєві через ворожий обстріл отримали поранення троє осіб.", "date": "2022-7-28", "timestamp": 1658966400000.0, "accuracy": 0}, "geometry": {"type": "Point", "coordinates": [32.05473468, "46.88282474"]}}, {"type": "Feature", "properties": {"sheet_name": "killed", "scale": 7.0, "description": "Ворожі касетні снаряди влучили у зупинку громадського транспорту в Корабельному районі Миколаєва, загинуло 7 цивільних.", "date": "2022-7-29", "timestamp": 1659052800000.0, "accuracy": 1}, "geometry": {"type": "Point", "coordinates": [32.01670424, "46.86746341"]}}, {"type": "Feature", "properties": {"sheet_name": "injured", "scale": 12.0, "description": "Ворожі касетні снаряди влучили у зупинку громадського транспорту в Корабельному районі Миколаєва, поранено 12 цивільних.", "date": "2022-7-29", "timestamp": 1659052800000.0, "accuracy": 1}, "geometry": {"type": "Point", "coordinates": [32.01670424, "46.86746341"]}}, {"type": "Feature", "properties": {"sheet_name": "killed", "scale": 1.0, "description": "У Миколаєві обстріляли один зі спальних районів міста, одна людина загинула.", "date": "2022-7-30", "timestamp": 1659139200000.0, "accuracy": 0}, "geometry": {"type": "Point", "coordinates": [31.99086, "46.83157"]}}, {"type": "Feature", "properties": {"sheet_name": "injured", "scale": 6.0, "description": "У Миколаєві обстріляний один зі спальних районів міста, шість людей поранено.", "date": "2022-7-30", "timestamp": 1659139200000.0, "accuracy": 0}, "geometry": {"type": "Point", "coordinates": [31.98848, "47.01141"]}}, {"type": "Feature", "properties": {"sheet_name": "injured", "scale": 2.0, "description": "Внаслідок масованих обстрілів Миколаєва поранено дві людини", "date": "2022-7-31", "timestamp": 1659225600000.0, "accuracy": 0}, "geometry": {"type": "Point", "coordinates": [32.0571059, "46.94744582"]}}, {"type": "Feature", "properties": {"sheet_name": "killed", "scale": 1.0, "description": "Внаслідок масованих обстрілів Миколаєва загинула одна людина", "date": "2022-7-31", "timestamp": 1659225600000.0, "accuracy": 0}, "geometry": {"type": "Point", "coordinates": [31.98650750711175, "46.97190148740666"]}}, {"type": "Feature", "properties": {"sheet_name": "injured", "scale": 3.0, "description": "Внаслідок масованих обстрілів Миколаєва поранено три людини", "date": "2022-8-1", "timestamp": 1659312000000.0, "accuracy": 1}, "geometry": {"type": "Point", "coordinates": [31.98206711, "46.95879557"]}}, {"type": "Feature", "properties": {"sheet_name": "injured", "scale": 1.0, "description": "Внаслідок обстрілу Миколаєва був поранений охоронець одного з гуртожитків", "date": "2022-8-2", "timestamp": 1659398400000.0, "accuracy": 1}, "geometry": {"type": "Point", "coordinates": [31.97761002, "46.97896482"]}}, {"type": "Feature", "properties": {"sheet_name": "injured", "scale": 2.0, "description": "Було обстріляно село Зоря, як наслідок поранено дві людини", "date": "2022-8-3", "timestamp": 1659484800000.0, "accuracy": 0}, "geometry": {"type": "Point", "coordinates": [32.28494466, "46.8947606"]}}, {"type": "Feature", "properties": {"sheet_name": "injured", "scale": 1.0, "description": "Через обстріли с. Галицинове поранено одну людину", "date": "2022-8-3", "timestamp": 1659484800000.0, "accuracy": 0}, "geometry": {"type": "Point", "coordinates": [31.95448981, "46.81060144"]}}, {"type": "Feature", "properties": {"sheet_name": "injured", "scale": 3.0, "description": "В селі Парутине внаслідок обстрілу троє людей зазнали поранень", "date": "2022-8-4", "timestamp": 1659571200000.0, "accuracy": 0}, "geometry": {"type": "Point", "coordinates": [31.90163048, "46.7100695"]}}, {"type": "Feature", "properties": {"sheet_name": "injured", "scale": 21.0, "description": "Внаслідок масованого обстрілу Миколаєва поранено двадцять одну людину, серед яких 13-річний підліток", "date": "2022-8-5", "timestamp": 1659657600000.0, "accuracy": 0}, "geometry": {"type": "Point", "coordinates": [32.02200978, "46.84772421"]}}, {"type": "Feature", "properties": {"sheet_name": "killed", "scale": 1.0, "description": "Внаслідок масованого обстрілу Миколаєва одна людина загинула", "date": "2022-8-5", "timestamp": 1659657600000.0, "accuracy": 0}, "geometry": {"type": "Point", "coordinates": [32.01512187, "46.84561086"]}}, {"type": "Feature", "properties": {"sheet_name": "injured", "scale": 1.0, "description": "Через обстріл Березнегуватого поранено 5 людей", "date": "2022-8-6", "timestamp": 1659744000000.0, "accuracy": 0}, "geometry": {"type": "Point", "coordinates": [32.86157699, "47.30020169"]}}, {"type": "Feature", "properties": {"sheet_name": "killed", "scale": 1.0, "description": "Через обстріл Березнегуватого загинула одна людина", "date": "2022-8-6", "timestamp": 1659744000000.0, "accuracy": 0}, "geometry": {"type": "Point", "coordinates": [32.83542274, "47.30365315"]}}, {"type": "Feature", "properties": {"sheet_name": "injured", "scale": 2.0, "description": "Через ракетний обстріл Миколаєва важко поранені дві людини", "date": "2022-8-6", "timestamp": 1659744000000.0, "accuracy": 0}, "geometry": {"type": "Point", "coordinates": [32.07016071, "46.96441949"]}}, {"type": "Feature", "properties": {"sheet_name": "injured", "scale": 1.0, "description": "Внаслідок обстрілів села Новомиколаєвка поранено одну людину", "date": "2022-8-7", "timestamp": 1659830400000.0, "accuracy": 0}, "geometry": {"type": "Point", "coordinates": [32.35571497, "46.96387411"]}}, {"type": "Feature", "properties": {"sheet_name": "killed", "scale": 1.0, "description": "Внаслідок обстрілу села Галицинове було вбито одну людину", "date": "2022-8-7", "timestamp": 1659830400000.0, "accuracy": 0}, "geometry": {"type": "Point", "coordinates": [31.95392796, "46.79693805"]}}, {"type": "Feature", "properties": {"sheet_name": "injured", "scale": 3.0, "description": "В Миколаєві поранено 3 людей через ворожі обстріли, серед них дівчинка 13 років", "date": "2022-8-10", "timestamp": 1660089600000.0, "accuracy": 1}, "geometry": {"type": "Point", "coordinates": [32.06968899, "46.96857984"]}}, {"type": "Feature", "properties": {"sheet_name": "killed", "scale": 1.0, "description": "Ввечері внаслідок обстрілів смт Березнегувате загинула жінка", "date": "2022-8-11", "timestamp": 1660176000000.0, "accuracy": 0}, "geometry": {"type": "Point", "coordinates": [32.84914465, "47.29876122"]}}, {"type": "Feature", "properties": {"sheet_name": "killed", "scale": 1.0, "description": "Внаслідок обстрілів села Веселий Кут загинула жінка", "date": "2022-8-12", "timestamp": 1660262400000.0, "accuracy": 0}, "geometry": {"type": "Point", "coordinates": [32.91837339, "47.15354137"]}}, {"type": "Feature", "properties": {"sheet_name": "injured", "scale": 1.0, "description": "У Миколаєві поранення отримала одна цивільна особа внаслідок ворожого обстрілу", "date": "2022-8-13", "timestamp": 1660348800000.0, "accuracy": 0}, "geometry": {"type": "Point", "coordinates": [32.06166366, "46.94729559"]}}, {"type": "Feature", "properties": {"sheet_name": "injured", "scale": 1.0, "description": "Під обстріл потрапило смт Березнегувате. Внаслідок чого одну людину поранено.", "date": "2022-8-16", "timestamp": 1660608000000.0, "accuracy": 0}, "geometry": {"type": "Point", "coordinates": [32.86477995, "47.29183393"]}}, {"type": "Feature", "properties": {"sheet_name": "killed", "scale": 1.0, "description": "Під обстріл потрапило смт Березнегувате. Внаслідок чого одна людина загинула", "date": "2022-8-16", "timestamp": 1660608000000.0, "accuracy": 0}, "geometry": {"type": "Point", "coordinates": [32.86429716, "47.29184849"]}}, {"type": "Feature", "properties": {"sheet_name": "injured", "scale": 1.0, "description": "Внаслідок ворожих обстрілів в с. Червоне Воскресенської громади зазнала поранень одна людина", "date": "2022-8-17", "timestamp": 1660694400000.0, "accuracy": 0}, "geometry": {"type": "Point", "coordinates": [32.37457522, "47.05681478"]}}, {"type": "Feature", "properties": {"sheet_name": "injured", "scale": 3.0, "description": "В результаті влучання касетних боєприпасів РСЗВ «Смерч» по селу Галицинове три людини отримали поранення.", "date": "2022-8-18", "timestamp": 1660780800000.0, "accuracy": 0}, "geometry": {"type": "Point", "coordinates": [31.97936044, "46.80156391"]}}, {"type": "Feature", "properties": {"sheet_name": "injured", "scale": 3.0, "description": "Касетними снарядами обстріляно смт Первомайське. Дві людини зазнали поранень", "date": "2022-8-19", "timestamp": 1660867200000.0, "accuracy": 0}, "geometry": {"type": "Point", "coordinates": [32.43904336, "47.03570829"]}}, {"type": "Feature", "properties": {"sheet_name": "injured", "scale": 1.0, "description": "Місто зазнало обстрілів ракетами типу С-300. Одна людина отримали поранення", "date": "2022-8-19", "timestamp": 1660867200000.0, "accuracy": 1}, "geometry": {"type": "Point", "coordinates": [32.01612761, "46.97157161"]}}, {"type": "Feature", "properties": {"sheet_name": "injured", "scale": 1.0, "description": "Було обстріляно с. Любомирівка, одна людина зазнала поранень", "date": "2022-8-20", "timestamp": 1660953600000.0, "accuracy": 0}, "geometry": {"type": "Point", "coordinates": [32.36977053, "46.88275656"]}}, {"type": "Feature", "properties": {"sheet_name": "injured", "scale": 14.0, "description": "Був нанесений ракетою типу «Калібр» по місту Вознесенськ. Відомо, що поранення отримали 14 людей, серед яких троє дітей", "date": "2022-8-20", "timestamp": 1660953600000.0, "accuracy": 1}, "geometry": {"type": "Point", "coordinates": [31.32942617, "47.57700492"]}}, {"type": "Feature", "properties": {"sheet_name": "injured", "scale": 1.0, "description": "Ворог обстріляв місто Баштанка. У результаті чого одна дитина отримала легке поранення", "date": "2022-8-21", "timestamp": 1661040000000.0, "accuracy": 0}, "geometry": {"type": "Point", "coordinates": [32.44561504, "47.39279319"]}}, {"type": "Feature", "properties": {"sheet_name": "injured", "scale": 9.0, "description": "Були обстріли м. Новий Буг. Внаслідок цього 9 людей, з них 2 дітей отримали поранення", "date": "2022-8-24", "timestamp": 1661299200000.0, "accuracy": 0}, "geometry": {"type": "Point", "coordinates": [32.49295391, "47.67242085"]}}, {"type": "Feature", "properties": {"sheet_name": "injured", "scale": 1.0, "description": "Обстрілів зазнало смт Березнегувате. Поранення отримала жінка", "date": "2022-8-26", "timestamp": 1661472000000.0, "accuracy": 0}, "geometry": {"type": "Point", "coordinates": [32.84739195, "47.29891329"]}}, {"type": "Feature", "properties": {"sheet_name": "killed", "scale": 1.0, "description": "Зафіксовані ворожі обстріли смт Первомайське одна людина загинула", "date": "2022-8-26", "timestamp": 1661472000000.0, "accuracy": 0}, "geometry": {"type": "Point", "coordinates": [32.43806349, "47.04101958"]}}, {"type": "Feature", "properties": {"sheet_name": "injured", "scale": 1.0, "description": "Під ворожими обстрілами були с. Оленівка та с-ще Любомирівка. Одна людина зазнала поранень", "date": "2022-8-27", "timestamp": 1661558400000.0, "accuracy": 0}, "geometry": {"type": "Point", "coordinates": [32.38350612, "46.88512234"]}}, {"type": "Feature", "properties": {"sheet_name": "killed", "scale": 1.0, "description": "Ворог здійснював обстріли Шевченківської громади. Внаслідок обстрілів у селищі Любомирівка одна людина загинула", "date": "2022-8-28", "timestamp": 1661644800000.0, "accuracy": 0}, "geometry": {"type": "Point", "coordinates": [32.37260562, "46.88457238"]}}, {"type": "Feature", "properties": {"sheet_name": "injured", "scale": 1.0, "description": "Ворог здійснював обстріли Шевченківської громади. У с. Котляреве одна людина зазнала важких поранень", "date": "2022-8-28", "timestamp": 1661644800000.0, "accuracy": 0}, "geometry": {"type": "Point", "coordinates": [32.22317065, "46.8855025"]}}, {"type": "Feature", "properties": {"sheet_name": "killed", "scale": 2.0, "description": "Миколаїв зазнав масований обстріл шістнадцятьма зенітними ракетами С-300. Внаслідок чого дві людини загинуло", "date": "2022-8-29", "timestamp": 1661731200000.0, "accuracy": 1}, "geometry": {"type": "Point", "coordinates": [32.04885829, "46.95397535"]}}, {"type": "Feature", "properties": {"sheet_name": "injured", "scale": 24.0, "description": "Миколаїв зазнав масований обстріл шістнадцятьма зенітними ракетами С-300. Внаслідок чого 24 людини отримали поранення", "date": "2022-8-29", "timestamp": 1661731200000.0, "accuracy": 1}, "geometry": {"type": "Point", "coordinates": [32.04790343, "46.95437447"]}}, {"type": "Feature", "properties": {"sheet_name": "killed", "scale": 1.0, "description": "Ворог обстріляв об’єкти інфраструктури Миколаєва. Є один загиблий", "date": "2022-8-30", "timestamp": 1661817600000.0, "accuracy": 0}, "geometry": {"type": "Point", "coordinates": [31.98045099, "46.94705972"]}}, {"type": "Feature", "properties": {"sheet_name": "injured", "scale": 2.0, "description": "Ворог обстріляв об’єкти інфраструктури Миколаєва. Є двоє поранених", "date": "2022-8-30", "timestamp": 1661817600000.0, "accuracy": 0}, "geometry": {"type": "Point", "coordinates": [31.98029789, "46.94731231"]}}, {"type": "Feature", "properties": {"sheet_name": "injured", "scale": 1.0, "description": "Ворог здійснив бомбардування фугасними п’ятсоткілограмовими авіабомбами Миколаївського району, де поранено одну людину", "date": "2022-9-1", "timestamp": 1661990400000.0, "accuracy": 0}, "geometry": {"type": "Point", "coordinates": [32.05459317, "46.90281587"]}}, {"type": "Feature", "properties": {"sheet_name": "injured", "scale": 4.0, "description": "Ракета типу Х-31, випущена з Су-35, влучила в приватний будинок у селі Висунськ Березнегуватської громади. Внаслідок руйнування четверо людей отримали осколочні поранення, троє з них - діти", "date": "2022-9-3", "timestamp": 1662163200000.0, "accuracy": 0}, "geometry": {"type": "Point", "coordinates": [32.82319323, "47.25986445"]}}, {"type": "Feature", "properties": {"sheet_name": "killed", "scale": 1.0, "description": "Ракета типу Х-31, випущена з Су-35, влучила в приватний будинок у селі Висунськ Березнегуватської громади. Внаслідок руйнування будинку загинула одна дитина.", "date": "2022-9-3", "timestamp": 1662163200000.0, "accuracy": 0}, "geometry": {"type": "Point", "coordinates": [32.82315031, "47.26019575"]}}, {"type": "Feature", "properties": {"sheet_name": "injured", "scale": 1.0, "description": "Ворог атакував Центральний район Миколаєва ракетою повітряного базування Х-59, випущеною з Су-35. Поранення отримала одна людина", "date": "2022-9-3", "timestamp": 1662163200000.0, "accuracy": 0}, "geometry": {"type": "Point", "coordinates": [32.02651312, "46.96760836"]}}, {"type": "Feature", "properties": {"sheet_name": "injured", "scale": 1.0, "description": "Зафіксовано ворожий обстріл Первомайської громади. Внаслідок чого в смт Первомайське одна людина отримала поранення", "date": "2022-9-4", "timestamp": 1662249600000.0, "accuracy": 0}, "geometry": {"type": "Point", "coordinates": [32.4432026, "47.03672394"]}}, {"type": "Feature", "properties": {"sheet_name": "killed", "scale": 1.0, "description": "Внаслідок обстрілів с. Білозірка Первомайської громади загинула одна людина", "date": "2022-9-10", "timestamp": 1662768000000.0, "accuracy": 0}, "geometry": {"type": "Point", "coordinates": [32.45119037, "47.08749033"]}}, {"type": "Feature", "properties": {"sheet_name": "injured", "scale": 5.0, "description": "Обстрілів зазнало смт Березнегувате. Внаслідок чого 5 людей отримали поранення", "date": "2022-9-11", "timestamp": 1662854400000.0, "accuracy": 0}, "geometry": {"type": "Point", "coordinates": [32.85115929, "47.30844275"]}}, {"type": "Feature", "properties": {"sheet_name": "killed", "scale": 1.0, "description": "Обстрілів зазнало смт Березнегувате. Проводяться роботи з пошуку зниклого чоловіка, який ймовірно був у своєму домоволодінні", "date": "2022-9-11", "timestamp": 1662854400000.0, "accuracy": 0}, "geometry": {"type": "Point", "coordinates": [32.84935148, "47.31066149"]}}, {"type": "Feature", "properties": {"sheet_name": "injured", "scale": 9.0, "description": "Миколаїв зазнав потужних обстрілів. 9 осіб дістали поранення різного ступеню", "date": "2022-9-11", "timestamp": 1662854400000.0, "accuracy": 1}, "geometry": {"type": "Point", "coordinates": [31.94598003, "46.95420884"]}}, {"type": "Feature", "properties": {"sheet_name": "injured", "scale": 5.0, "description": "Стратегічною авіацією ворог доправив по Вознесенську три крилаті ракети Х-555. Отримали поранення п’ять людей, з них одна дитина", "date": "2022-9-11", "timestamp": 1662854400000.0, "accuracy": 0}, "geometry": {"type": "Point", "coordinates": [31.33296681, "47.57557607"]}}, {"type": "Feature", "properties": {"sheet_name": "killed", "scale": 2.0, "description": "Через обстріли Миколаєва ракетами С-300 загинули двоє цивільних.", "date": "2022-9-14", "timestamp": 1663113600000.0, "accuracy": 0}, "geometry": {"type": "Point", "coordinates": [31.99795911, "46.96714111"]}}, {"type": "Feature", "properties": {"sheet_name": "injured", "scale": 6.0, "description": "Через обстріли Миколаєва ракетами С-300 троє цивільних отримали поранення та трьом надана допомога амбулаторно.", "date": "2022-9-14", "timestamp": 1663113600000.0, "accuracy": 0}, "geometry": {"type": "Point", "coordinates": [31.99646244, "46.96886531"]}}, {"type": "Feature", "properties": {"sheet_name": "killed", "scale": 1.0, "description": "У с. Дмитрівка через ворожі обстріли загинула одна людина.", "date": "2022-9-17", "timestamp": 1663372800000.0, "accuracy": 0}, "geometry": {"type": "Point", "coordinates": [31.72410897, "46.63136841"]}}, {"type": "Feature", "properties": {"sheet_name": "injured", "scale": 2.0, "description": "У м. Очаків внаслідок обстрілів важких поранень зазнали дві людини.", "date": "2022-9-18", "timestamp": 1663459200000.0, "accuracy": 0}, "geometry": {"type": "Point", "coordinates": [31.55541667, "46.6250364"]}}, {"type": "Feature", "properties": {"sheet_name": "injured", "scale": 1.0, "description": "Внаслідок обстрілу с. Білозірка зазнала поранень одна людина.", "date": "2022-9-20", "timestamp": 1663632000000.0, "accuracy": 0}, "geometry": {"type": "Point", "coordinates": [32.44591173, "47.09091632"]}}, {"type": "Feature", "properties": {"sheet_name": "injured", "scale": 1.0, "description": "Ворог обстріляв околиці с. Висуньск. Під час обстрілу поранено одну людину", "date": "2022-9-29", "timestamp": 1664409600000.0, "accuracy": 0}, "geometry": {"type": "Point", "coordinates": [32.81249554, "47.25058396"]}}, {"type": "Feature", "properties": {"sheet_name": "killed", "scale": 3.0, "description": "Ворог завдав удару по житловому району Миколаєва касетними снарядами «Смерч». Внаслідок чого троє людей загинуло", "date": "2022-9-29", "timestamp": 1664409600000.0, "accuracy": 1}, "geometry": {"type": "Point", "coordinates": [32.07423767, "46.96244803"]}}, {"type": "Feature", "properties": {"sheet_name": "injured", "scale": 11.0, "description": "Ворог завдав удару по житловому району Миколаєва касетними снарядами «Смерч». Внаслідок чого одинадцять людей поранено, з них одна дитина 17 років", "date": "2022-9-29", "timestamp": 1664409600000.0, "accuracy": 1}, "geometry": {"type": "Point", "coordinates": [32.07362612, "46.96266769"]}}, {"type": "Feature", "properties": {"sheet_name": "injured", "scale": 8.0, "description": "Миколаїв зазнав масованого ракетного обстрілу. Дві з ракет влучили у десятиповерховий будинок. Внаслідок чого одну людину було деблоковано з під завалів, поранення отримало ще вісім осіб, три поранених особи у важкому стані перебувають у медичних закладах, п‘ятьом - надано амбулаторну допомогу.", "date": "2022-9-30", "timestamp": 1664496000000.0, "accuracy": 1}, "geometry": {"type": "Point", "coordinates": [31.96235731, "46.95572164"]}}, {"type": "Feature", "properties": {"sheet_name": "injured", "scale": 5.0, "description": "Внаслідок обстрілу Миколаєва поранення отримали п'ятеро людей, серед них тримісячна дитина", "date": "2022-10-1", "timestamp": 1664582400000.0, "accuracy": 1}, "geometry": {"type": "Point", "coordinates": [31.99023632, "46.97626593"]}}, {"type": "Feature", "properties": {"sheet_name": "killed", "scale": 2.0, "description": "Внаслідок ворожого обстрілу с. Шевченко дві людини загинуло, частково зруйнувано житловий будинок", "date": "2022-10-2", "timestamp": 1664668800000.0, "accuracy": 1}, "geometry": {"type": "Point", "coordinates": [32.06700515, "46.95171555"]}}, {"type": "Feature", "properties": {"sheet_name": "injured", "scale": 7.0, "description": "Миколаїв зазнав ракетного обстрілу зенітно-ракетними системи С-300. Всього внаслідок обстрілу поранення отримало сім осіб.", "date": "2022-10-2", "timestamp": 1664668800000.0, "accuracy": 1}, "geometry": {"type": "Point", "coordinates": [32.06554195, "46.95163389"]}}, {"type": "Feature", "properties": {"sheet_name": "injured", "scale": 2.0, "description": "Внаслідок ворожих обстрілів Шевченківської громади поранення отримали дві людини.", "date": "2022-10-6", "timestamp": 1665014400000.0, "accuracy": 0}, "geometry": {"type": "Point", "coordinates": [32.28691324, "46.89397094"]}}, {"type": "Feature", "properties": {"sheet_name": "injured", "scale": 1.0, "description": "Ворог обстрілював Куцурубську громаду. Внаслідок ворожих обстрілів отримала поранення дитина.", "date": "2022-10-9", "timestamp": 1665273600000.0, "accuracy": 0}, "geometry": {"type": "Point", "coordinates": [31.61531652, "46.6535006"]}}, {"type": "Feature", "properties": {"sheet_name": "killed", "scale": 1.0, "description": "Були обстріли села Широківської громади. Внаслідок чого загинула одна жінка.", "date": "2022-10-10", "timestamp": 1665360000000.0, "accuracy": 0}, "geometry": {"type": "Point", "coordinates": [32.66128597, "47.1501186"]}}, {"type": "Feature", "properties": {"sheet_name": "killed", "scale": 8.0, "description": "Ворог масовано обстріляв Миколаїв вісьмома ракетами типу С-300. Вісім людей загинули", "date": "2022-10-13", "timestamp": 1665619200000.0, "accuracy": 1}, "geometry": {"type": "Point", "coordinates": [31.99992934, "46.95858802"]}}, {"type": "Feature", "properties": {"sheet_name": "injured", "scale": 1.0, "description": "Ворог масовано обстріляв Миколаїв вісьмома ракетами типу С-300. Одна людина отримала поранення.", "date": "2022-10-13", "timestamp": 1665619200000.0, "accuracy": 1}, "geometry": {"type": "Point", "coordinates": [31.99979185, "46.95868115"]}}, {"type": "Feature", "properties": {"sheet_name": "injured", "scale": 1.0, "description": "Під час ворожих обстрілів Воскресенської громади зазнала поранень одна людина.", "date": "2022-10-15", "timestamp": 1665792000000.0, "accuracy": 0}, "geometry": {"type": "Point", "coordinates": [32.17824048, "47.04516991"]}}, {"type": "Feature", "properties": {"sheet_name": "killed", "scale": 1.0, "description": "Миколаїв зазнав масованого ракетного обстрілу зенітно-ракетними системи С-300. З-під завалів рятувальники дістали тіло чоловіка.", "date": "2022-10-18", "timestamp": 1666051200000.0, "accuracy": 0}, "geometry": {"type": "Point", "coordinates": [31.99216787, "46.97304704"]}}, {"type": "Feature", "properties": {"sheet_name": "killed", "scale": 1.0, "description": "Внаслідок ворожих обстрілів одного з населених пунктів Галицинівської громади загинула одна людина", "date": "2022-10-22", "timestamp": 1666396800000.0, "accuracy": 0}, "geometry": {"type": "Point", "coordinates": [31.9797443, "46.80320776"]}}, {"type": "Feature", "properties": {"sheet_name": "injured", "scale": 1.0, "description": "Внаслідок ворожих обстрілів одного з населених пунктів Галицинівської громади одна зазнала осколкових поранень", "date": "2022-10-22", "timestamp": 1666396800000.0, "accuracy": 0}, "geometry": {"type": "Point", "coordinates": [31.97803842, "46.80333627"]}}, {"type": "Feature", "properties": {"sheet_name": "injured", "scale": 4.0, "description": "Миколаїв зазнав ворожого обстрілу ракетами типу С-300. Три людини отримали поранення. Також ще одну людину госпіталізовано", "date": "2022-10-23", "timestamp": 1666483200000.0, "accuracy": 1}, "geometry": {"type": "Point", "coordinates": [32.00943013, "46.86007391"]}}, {"type": "Feature", "properties": {"sheet_name": "injured", "scale": 2.0, "description": "Ворог завдав ракетного обстрілу по Галицинівській громаді. Внаслідок чого поранення отримали дві людини", "date": "2022-10-23", "timestamp": 1666483200000.0, "accuracy": 0}, "geometry": {"type": "Point", "coordinates": [31.97742411, "46.80640468"]}}, {"type": "Feature", "properties": {"sheet_name": "injured", "scale": 1.0, "description": "Миколаїв зазнав обстрілів із зенітно-ракетного комплексу С-300. Одна людина отримала легкі поранення", "date": "2022-10-28", "timestamp": 1666915200000.0, "accuracy": 0}, "geometry": {"type": "Point", "coordinates": [32.02780249, "46.95321897"]}}, {"type": "Feature", "properties": {"sheet_name": "injured", "scale": 4.0, "description": "Ворог обстріляв населений пункт Галицинівської громади. Внаслідок чого чотири людини отримали поранення.", "date": "2022-10-28", "timestamp": 1666915200000.0, "accuracy": 0}, "geometry": {"type": "Point", "coordinates": [31.94809147, "46.79640188"]}}, {"type": "Feature", "properties": {"sheet_name": "killed", "scale": 1.0, "description": "Через удар по Миколаєву ракетами С-300 загинула одна людина.", "date": "2022-11-1", "timestamp": 1667260800000.0, "accuracy": 0}, "geometry": {"type": "Point", "coordinates": [31.98022081, "46.97818054"]}}, {"type": "Feature", "properties": {"sheet_name": "injured", "scale": 1.0, "description": "Внаслідок обстрілу Галицинівської громади касетними снарядами одна людина отримала поранення.", "date": "2022-11-1", "timestamp": 1667260800000.0, "accuracy": 0}, "geometry": {"type": "Point", "coordinates": [31.95554329, "46.79756153"]}}, {"type": "Feature", "properties": {"sheet_name": "injured", "scale": 1.0, "description": "Внаслідок обстрілу Шевченківської громади поранення отримала одна людина.", "date": "2022-11-7", "timestamp": 1667779200000.0, "accuracy": 0}, "geometry": {"type": "Point", "coordinates": [32.28781711, "46.89084378"]}}, {"type": "Feature", "properties": {"sheet_name": "injured", "scale": 1.0, "description": "Миколаїв обстріляли з РСЗВ «Смерч», осколкові поранення отримала одна людина.", "date": "2022-11-9", "timestamp": 1667952000000.0, "accuracy": 1}, "geometry": {"type": "Point", "coordinates": [32.06707798, "46.95099327"]}}, {"type": "Feature", "properties": {"sheet_name": "injured", "scale": 1.0, "description": "Ракета С-300 влучила в п’ятиповерховий житловий будинок в Миколаєві, поранений 1 мирний житель.", "date": "2022-11-11", "timestamp": 1668124800000.0, "accuracy": 1}, "geometry": {"type": "Point", "coordinates": [32.06125353, "46.94068038"]}}, {"type": "Feature", "properties": {"sheet_name": "killed", "scale": 7.0, "description": "Ракета С-300 влучила в п’ятиповерховий житловий будинок в Миколаєві, внаслідок цього загинуло 7 мирних жителів. ", "date": "2022-11-11", "timestamp": 1668124800000.0, "accuracy": 1}, "geometry": {"type": "Point", "coordinates": [32.06087077, "46.94094171"]}}, {"type": "Feature", "properties": {"sheet_name": "injured", "scale": 1.0, "description": "Через обстріли Очаківської громади з РСЗВ одна людина отримала контузію.", "date": "2022-11-25", "timestamp": 1669334400000.0, "accuracy": 0}, "geometry": {"type": "Point", "coordinates": [31.54614266, "46.62208748"]}}, {"type": "Feature", "properties": {"sheet_name": "injured", "scale": 1.0, "description": "Через удари по населеному пункту Очаківської громади отримала поранення одна людина.", "date": "2022-12-12", "timestamp": 1670803200000.0, "accuracy": 0}, "geometry": {"type": "Point", "coordinates": [31.53495527, "46.61153114"]}}, {"type": "Feature", "properties": {"sheet_name": "injured", "scale": 3.0, "description": "В Очакові через обстріл зазнали поранень три людини, серед яких 10-річний хлопчик. ", "date": "2022-12-21", "timestamp": 1671580800000.0, "accuracy": 0}, "geometry": {"type": "Point", "coordinates": [31.56372623, "46.62684095"]}}, {"type": "Feature", "properties": {"sheet_name": "injured", "scale": 7.0, "description": "Через ракетний обстріл Миколаєва постраждало семеро людей.", "date": "2022-12-31", "timestamp": 1672444800000.0, "accuracy": 0}, "geometry": {"type": "Point", "coordinates": [32.02349571, "46.87686399"]}}, {"type": "Feature", "properties": {"sheet_name": "injured", "scale": 15.0, "description": "Через удари по Очакову постраждало 15 людей, серед них дворічна дитина.", "date": "2023-01-09", "timestamp": 1673222400000.0, "accuracy": 1}, "geometry": {"type": "Point", "coordinates": [31.54908620688196, "46.618770085185155"]}}, {"type": "Feature", "properties": {"sheet_name": "injured", "scale": 1.0, "description": "Внаслідок ударів по Очаківській громаді одна людина отримала легкі поранення.", "date": "2023-01-12", "timestamp": 1673481600000.0, "accuracy": 0}, "geometry": {"type": "Point", "coordinates": [31.51686080751585, "46.622101938740066"]}}, {"type": "Feature", "properties": {"sheet_name": "killed", "scale": 1.0, "description": "Одна людина загинула через артилерійські удари по населенному пункту Очаківської громади.", "date": "2023-01-16", "timestamp": 1673827200000.0, "accuracy": 0}, "geometry": {"type": "Point", "coordinates": [31.55609059333082, "46.61756476895498"]}}, {"type": "Feature", "properties": {"sheet_name": "injured", "scale": 1.0, "description": "Одна людина зазнала важких поранень через  обстріл населеного пункту Очаківської громади.", "date": "2023-02-21", "timestamp": 1676937600000.0, "accuracy": 0}, "geometry": {"type": "Point", "coordinates": [31.545161794687512, "46.60875010276688"]}}, {"type": "Feature", "properties": {"sheet_name": "injured", "scale": 2.0, "description": "Двоє людей отримало поранення через обстріл м. Очаків.", "date": "2023-04-07", "timestamp": 1680825600000.0, "accuracy": 0}, "geometry": {"type": "Point", "coordinates": [31.529156416658807, "46.62458213425473"]}}, {"type": "Feature", "properties": {"sheet_name": "killed", "scale": 2.0, "description": "Через обстріл зенітно-ракетними системами С-300 по одному з населених пунктів Снігурівської громади загинуло двоє підлітків 2005 року народження.", "date": "2023-04-16", "timestamp": 1681603200000.0, "accuracy": 0}, "geometry": {"type": "Point", "coordinates": [32.81829158412327, "47.073659261672084"]}}, {"type": "Feature", "properties": {"sheet_name": "killed", "scale": 1.0, "description": "Внаслідок ворожого ракетного удару по Миколаєву загинула одна людина.", "date": "2023-04-27", "timestamp": 1682553600000.0, "accuracy": 1}, "geometry": {"type": "Point", "coordinates": [32.02283518, "46.99380294"]}}, {"type": "Feature", "properties": {"sheet_name": "injured", "scale": 23.0, "description": "Внаслідок ворожого ракетного удару по Миколаєву поранено 23 людини, серед них двоє дітей.", "date": "2023-04-27", "timestamp": 1682553600000.0, "accuracy": 1}, "geometry": {"type": "Point", "coordinates": [32.02205664, "46.9951115"]}}]}